{
  "norad_id": 64718,
  "name": "STARLINK-34546",
  "history": [
    {
      "epoch": "2026-03-28T21:47:02.638752Z",
      "apogee_km": 574.2204604550443,
      "perigee_km": 569.9280099961688,
      "latitude_deg": -1.6255131179451483e-05,
      "longitude_deg": 112.746523572538,
      "height_km": 574.4761811914171,
      "semi_major_axis_km": 6950.211235225606,
      "eccentricity": 0.0003088,
      "inclination_deg": 69.9998,
      "raan_deg": 265.8289,
      "arg_perigee_deg": 270.6827,
      "mean_anomaly_deg": 89.3978,
      "mean_motion_rev_day": 14.98324068
    },
    {
      "epoch": "2026-03-30T04:13:35.738976Z",
      "apogee_km": 573.7683143188478,
      "perigee_km": 570.2833636681207,
      "latitude_deg": -1.5143900817368851e-05,
      "longitude_deg": 11.659376857417532,
      "height_km": 574.2769939064244,
      "semi_major_axis_km": 6950.162838993484,
      "eccentricity": 0.00025071,
      "inclination_deg": 70.001,
      "raan_deg": 262.6299,
      "arg_perigee_deg": 275.7918,
      "mean_anomaly_deg": 84.2955,
      "mean_motion_rev_day": 14.98339718
    },
    {
      "epoch": "2026-03-30T13:50:24.040032Z",
      "apogee_km": 573.7028521225939,
      "perigee_km": 570.3382808446595,
      "latitude_deg": 1.3840859832831001e-05,
      "longitude_deg": -133.9452755941656,
      "height_km": 574.5066387846583,
      "semi_major_axis_km": 6950.157566483626,
      "eccentricity": 0.00024205,
      "inclination_deg": 70.0021,
      "raan_deg": 261.6213,
      "arg_perigee_deg": 267.9886,
      "mean_anomaly_deg": 92.0996,
      "mean_motion_rev_day": 14.98341423
    },
    {
      "epoch": "2026-03-30T21:51:04.605408Z",
      "apogee_km": 574.0855543131911,
      "perigee_km": 570.0483198502197,
      "latitude_deg": 3.452617818284523e-05,
      "longitude_deg": 104.7157987872156,
      "height_km": 574.5949340432023,
      "semi_major_axis_km": 6950.203937081706,
      "eccentricity": 0.00029044,
      "inclination_deg": 70.0004,
      "raan_deg": 260.7804,
      "arg_perigee_deg": 267.1433,
      "mean_anomaly_deg": 92.9394,
      "mean_motion_rev_day": 14.98326428
    },
    {
      "epoch": "2026-03-31T17:04:41.649888Z",
      "apogee_km": 574.2305858716945,
      "perigee_km": 569.8742071579591,
      "latitude_deg": 1.0116079405142705e-05,
      "longitude_deg": 173.50001599625682,
      "height_km": 574.4928706823138,
      "semi_major_axis_km": 6950.1893965148265,
      "eccentricity": 0.0003134,
      "inclination_deg": 69.9996,
      "raan_deg": 258.7586,
      "arg_perigee_deg": 269.6603,
      "mean_anomaly_deg": 90.4197,
      "mean_motion_rev_day": 14.9833113
    },
    {
      "epoch": "2026-04-01T17:06:42.653952Z",
      "apogee_km": 572.5665767209684,
      "perigee_km": 571.5365587752294,
      "latitude_deg": -5.1210184618281525e-05,
      "longitude_deg": 169.48348609858317,
      "height_km": 574.8308859737683,
      "semi_major_axis_km": 6950.188567748099,
      "eccentricity": 7.41e-05,
      "inclination_deg": 69.9997,
      "raan_deg": 256.2333,
      "arg_perigee_deg": 226.4739,
      "mean_anomaly_deg": 133.6358,
      "mean_motion_rev_day": 14.98331398
    },
    {
      "epoch": "2026-04-02T17:08:45.145824Z",
      "apogee_km": 574.371215457044,
      "perigee_km": 569.766981924904,
      "latitude_deg": 1.706287455077763e-05,
      "longitude_deg": 165.4619865086096,
      "height_km": 574.5904957042541,
      "semi_major_axis_km": 6950.206098690974,
      "eccentricity": 0.00033123,
      "inclination_deg": 70.0046,
      "raan_deg": 253.7092,
      "arg_perigee_deg": 267.6771,
      "mean_anomaly_deg": 92.4009,
      "mean_motion_rev_day": 14.98325729
    },
    {
      "epoch": "2026-04-03T20:23:01.673088Z",
      "apogee_km": 573.9861273526021,
      "perigee_km": 569.9981432547638,
      "latitude_deg": 4.8850937108776376e-05,
      "longitude_deg": 112.91191275135377,
      "height_km": 574.488336285418,
      "semi_major_axis_km": 6950.129135303682,
      "eccentricity": 0.0002869,
      "inclination_deg": 70.0011,
      "raan_deg": 250.8466,
      "arg_perigee_deg": 268.0235,
      "mean_anomaly_deg": 92.0596,
      "mean_motion_rev_day": 14.98350617
    },
    {
      "epoch": "2026-04-04T20:25:01.360416Z",
      "apogee_km": 573.9889886616947,
      "perigee_km": 569.9565349778877,
      "latitude_deg": 2.8182215601535603e-05,
      "longitude_deg": 108.90139688926088,
      "height_km": 574.445764268789,
      "semi_major_axis_km": 6950.109761819791,
      "eccentricity": 0.0002901,
      "inclination_deg": 70.0009,
      "raan_deg": 248.3218,
      "arg_perigee_deg": 268.7055,
      "mean_anomaly_deg": 91.3772,
      "mean_motion_rev_day": 14.98356882
    },
    {
      "epoch": "2026-04-05T14:02:29.761152Z",
      "apogee_km": 573.7244159818847,
      "perigee_km": 570.3164757798713,
      "latitude_deg": 4.7123704042882136e-05,
      "longitude_deg": -158.04134863083297,
      "height_km": 574.6677209513956,
      "semi_major_axis_km": 6950.157445880878,
      "eccentricity": 0.00024517,
      "inclination_deg": 70.002,
      "raan_deg": 246.4712,
      "arg_perigee_deg": 262.5743,
      "mean_anomaly_deg": 97.5138,
      "mean_motion_rev_day": 14.98341462
    },
    {
      "epoch": "2026-04-05T20:27:01.897920Z",
      "apogee_km": 574.0314150750246,
      "perigee_km": 570.0114434395418,
      "latitude_deg": -1.4688012304530686e-05,
      "longitude_deg": 104.89162004438771,
      "height_km": 574.9242990570224,
      "semi_major_axis_km": 6950.1584292572825,
      "eccentricity": 0.0002892,
      "inclination_deg": 70.0027,
      "raan_deg": 245.8013,
      "arg_perigee_deg": 256.3209,
      "mean_anomaly_deg": 103.7628,
      "mean_motion_rev_day": 14.98341144
    },
    {
      "epoch": "2026-04-05T20:27:01.898784Z",
      "apogee_km": 574.0312034769977,
      "perigee_km": 570.0116488528101,
      "latitude_deg": -1.7845314935536362e-05,
      "longitude_deg": 104.8916152918108,
      "height_km": 574.9242466504934,
      "semi_major_axis_km": 6950.158426164903,
      "eccentricity": 0.00028917,
      "inclination_deg": 70.0027,
      "raan_deg": 245.8013,
      "arg_perigee_deg": 256.3209,
      "mean_anomaly_deg": 103.7628,
      "mean_motion_rev_day": 14.98341145
    },
    {
      "epoch": "2026-04-07T12:30:23.675040Z",
      "apogee_km": 574.142004743102,
      "perigee_km": 569.9340907621909,
      "latitude_deg": -1.3271655588377729e-05,
      "longitude_deg": -141.8064652041537,
      "height_km": 574.4751241228706,
      "semi_major_axis_km": 6950.175047752646,
      "eccentricity": 0.00030272,
      "inclination_deg": 70.001,
      "raan_deg": 241.589,
      "arg_perigee_deg": 269.7409,
      "mean_anomaly_deg": 90.3403,
      "mean_motion_rev_day": 14.9833577
    },
    {
      "epoch": "2026-04-07T17:18:47.787552Z",
      "apogee_km": 574.2190173819235,
      "perigee_km": 569.8376331608724,
      "latitude_deg": -8.063446560258172e-05,
      "longitude_deg": 145.39053695665848,
      "height_km": 574.4746015564995,
      "semi_major_axis_km": 6950.165325271398,
      "eccentricity": 0.0003152,
      "inclination_deg": 70.001,
      "raan_deg": 241.0839,
      "arg_perigee_deg": 269.514,
      "mean_anomaly_deg": 90.5657,
      "mean_motion_rev_day": 14.98338914
    }
  ]
}